UWE-3                   
1 39446U 13066AG  26068.86347791  .00006533  00000+0  57142-3 0  9997
2 39446  97.8589  24.3957 0048462 291.5404  68.0655 14.96183146662729
STARLINK-5627           
1 55364U 23013AK  26068.02449299  .00000197  00000+0  29676-4 0  9993
2 55364  43.0049 303.5755 0001489 267.0997  92.9675 15.02532854171614
